NORAD_CAT_ID,OBJECT_NAME,OBJECT_TYPE,EPOCH,MEAN_MOTION,ECCENTRICITY,INCLINATION,RA_OF_ASC_NODE,ARG_OF_PERICENTER,MEAN_ANOMALY,BSTAR,MEAN_MOTION_DOT,MEAN_MOTION_DDOT,TLE_LINE0,TLE_LINE1,TLE_LINE2,SEMIMAJOR_AXIS,PERIOD,APOGEE,PERIGEE,DECAYED
56777.0,STARLINK-5582,PAYLOAD,2024-02-20 12:00:08,14.98330184,0.0002859,69.9996,71.1112,268.6144,91.4687,-4.7908e-05,-6.65e-06,0.0,0 STARLINK-5582,1 56777U 23078L   24051.50010194 -.00000665  00000-0 -47908-4 0  9995,2 56777  69.9996  71.1112 0002859 268.6144  91.4687 14.98330184 40606,6950.192,96.107,574.044,570.07,0.0
56777.0,STARLINK-5582,PAYLOAD,2024-02-20 18:24:41,14.98331264,0.000287,69.9997,70.4379,268.5452,91.5379,-7.0401e-05,-9.33e-06,0.0,0 STARLINK-5582,1 56777U 23078L   24051.76714166 -.00000933  00000-0 -70401-4 0  9995,2 56777  69.9997  70.4379 0002870 268.5452  91.5379 14.98331264 40641,6950.189,96.107,574.049,570.059,0.0
56777.0,STARLINK-5582,PAYLOAD,2024-02-21 04:01:29,14.98322199,0.0002951,69.9994,69.4278,269.5112,90.5709,0.00012683,1.42e-05,0.0,0 STARLINK-5582,1 56777U 23078L   24052.16770257  .00001420  00000-0  12683-3 0  9990,2 56777  69.9994  69.4278 0002951 269.5112  90.5709 14.98322199 40966,6950.217,96.107,574.133,570.031,0.0
56777.0,STARLINK-5582,PAYLOAD,2024-02-21 10:26:01,14.98332275,0.0002752,69.9991,68.7537,262.2944,97.7902,1.658e-05,1.05e-06,0.0,0 STARLINK-5582,1 56777U 23078L   24052.43473854  .00000105  00000-0  16580-4 0  9993,2 56777  69.9991  68.7537 0002752 262.2944  97.7902 14.98332275 41001,6950.186,96.107,573.964,570.138,0.0
56777.0,STARLINK-5582,PAYLOAD,2024-02-21 18:26:42,14.983273,0.0002795,69.9999,67.9118,270.6441,89.4397,-2.9922e-06,-1.29e-06,0.0,0 STARLINK-5582,1 56777U 23078L   24052.76854276 -.00000129  00000-0 -29922-5 0  9993,2 56777  69.9999  67.9118 0002795 270.6441  89.4397 14.98327300 40791,6950.201,96.107,574.009,570.124,0.0
56777.0,STARLINK-5582,PAYLOAD,2024-02-22 04:03:30,14.98325427,0.0002968,69.9992,66.9025,269.3238,90.7581,2.4311e-05,1.97e-06,0.0,0 STARLINK-5582,1 56777U 23078L   24053.16910315  .00000197  00000-0  24311-4 0  9994,2 56777  69.9992  66.9025 0002968 269.3238  90.7581 14.98325427 41116,6950.207,96.107,574.135,570.009,0.0
56777.0,STARLINK-5582,PAYLOAD,2024-02-22 10:28:02,14.98327632,0.0002864,69.9993,66.2284,267.2421,92.841,3.5609e-05,3.32e-06,0.0,0 STARLINK-5582,1 56777U 23078L   24053.43614196  .00000332  00000-0  35609-4 0  9995,2 56777  69.9993  66.2284 0002864 267.2421  92.8410 14.98327632 40891,6950.2,96.107,574.056,570.075,0.0
56777.0,STARLINK-5582,PAYLOAD,2024-02-22 18:28:42,14.98329977,0.0002976,69.9996,65.3868,266.7665,93.3154,3.2503e-05,2.95e-06,0.0,0 STARLINK-5582,1 56777U 23078L   24053.76994047  .00000295  00000-0  32503-4 0  9995,2 56777  69.9996  65.3868 0002976 266.7665  93.3154 14.98329977 40941,6950.193,96.107,574.126,569.99,0.0
56777.0,STARLINK-5582,PAYLOAD,2024-02-23 04:05:31,14.98329699,0.0002984,69.9992,64.3767,269.0946,90.9872,9.7819e-05,1.074e-05,0.0,0 STARLINK-5582,1 56777U 23078L   24054.17049876  .00001074  00000-0  97819-4 0  9999,2 56777  69.9992  64.3767 0002984 269.0946  90.9872 14.98329699 41268,6950.194,96.107,574.133,569.985,0.0
56777.0,STARLINK-5582,PAYLOAD,2024-02-23 10:30:03,14.98335084,0.0002985,69.9993,63.7034,268.5015,91.5802,5.3389e-05,5.44e-06,0.0,0 STARLINK-5582,1 56777U 23078L   24054.43753577  .00000544  00000-0  53389-4 0  9993,2 56777  69.9993  63.7034 0002985 268.5015  91.5802 14.98335084 41042,6950.177,96.107,574.117,569.968,0.0
56777.0,STARLINK-5582,PAYLOAD,2024-02-24 04:07:32,14.98327651,0.0002967,69.9994,61.8519,268.7213,91.3606,2.8276e-06,-5.9e-07,0.0,0 STARLINK-5582,1 56777U 23078L   24055.17190142 -.00000059  00000-0  28276-5 0  9998,2 56777  69.9994  61.8519 0002967 268.7213  91.3606 14.98327651 41414,6950.2,96.107,574.127,570.003,0.0
56777.0,STARLINK-5582,PAYLOAD,2024-02-24 10:32:04,14.98329121,0.0003008,69.9995,61.1791,269.569,90.5124,-1.7312e-06,-1.14e-06,0.0,0 STARLINK-5582,1 56777U 23078L   24055.43894094 -.00000114  00000-0 -17312-5 0  9996,2 56777  69.9995  61.1791 0003008 269.5690  90.5124 14.98329121 41190,6950.196,96.107,574.151,569.97,0.0
56777.0,STARLINK-5582,PAYLOAD,2024-02-25 04:09:33,14.98333098,0.000289,69.9998,59.3276,271.3293,88.7535,-8.9697e-06,-2e-06,0.0,0 STARLINK-5582,1 56777U 23078L   24056.17329873 -.00000200  00000-0 -89697-5 0  9997,2 56777  69.9998  59.3276 0002890 271.3293  88.7535 14.98333098 41562,6950.183,96.107,574.057,570.04,0.0
56777.0,STARLINK-5582,PAYLOAD,2024-02-25 10:34:04,14.98336038,0.0002874,69.9999,58.6545,269.6692,90.4138,4.197e-05,4.08e-06,0.0,0 STARLINK-5582,1 56777U 23078L   24056.44033445  .00000408  00000-0  41970-4 0  9993,2 56777  69.9999  58.6545 0002874 269.6692  90.4138 14.98336038 41341,6950.174,96.107,574.037,570.042,0.0
56777.0,STARLINK-5582,PAYLOAD,2024-02-25 16:58:37,14.98334348,0.0002749,70.0003,57.9809,269.7401,90.3443,8.4119e-06,7e-08,0.0,0 STARLINK-5582,1 56777U 23078L   24056.70737582  .00000007  00000-0  84119-5 0  9993,2 56777  70.0003  57.9809 0002749 269.7401  90.3443 14.98334348 41389,6950.179,96.107,573.955,570.134,0.0
56777.0,STARLINK-5582,PAYLOAD,2024-02-26 04:11:33,14.98332321,0.0002758,69.9999,56.8021,267.0285,93.0558,3.6205e-05,3.39e-06,0.0,0 STARLINK-5582,1 56777U 23078L   24057.17469505  .00000339  00000-0  36205-4 0  9992,2 56777  69.9999  56.8021 0002758 267.0285  93.0558 14.98332321 41718,6950.186,96.107,573.968,570.134,0.0
56777.0,STARLINK-5582,PAYLOAD,2024-02-26 10:36:05,14.98332756,0.0002802,70.0,56.1297,265.5373,94.5466,6.838e-05,7.23e-06,0.0,0 STARLINK-5582,1 56777U 23078L   24057.44173350  .00000723  00000-0  68380-4 0  9998,2 56777  70.0000  56.1297 0002802 265.5373  94.5466 14.98332756 41494,6950.184,96.107,573.997,570.102,0.0
56777.0,STARLINK-5582,PAYLOAD,2024-02-27 04:13:37,14.98305377,0.0002766,70.0003,54.2788,259.0721,101.0126,-0.00031565,-3.855e-05,0.0,0 STARLINK-5582,1 56777U 23078L   24058.17612384 -.00003855  00000-0 -31565-3 0  9999,2 56777  70.0003  54.2788 0002766 259.0721 101.0126 14.98305377 41862,6950.269,96.109,574.056,570.212,0.0
56777.0,STARLINK-5582,PAYLOAD,2024-02-27 09:02:01,14.98303389,0.0002583,70.0008,53.7746,255.5546,104.5326,-0.00030511,-3.729e-05,0.0,0 STARLINK-5582,1 56777U 23078L   24058.37640800 -.00003729  00000-0 -30511-3 0  9995,2 56777  70.0008  53.7746 0002583 255.5546 104.5326 14.98303389 41634,6950.275,96.109,573.935,570.345,0.0
56777.0,STARLINK-5582,PAYLOAD,2024-02-28 04:15:37,14.98328771,0.0002487,70.0006,51.7528,245.4309,114.6591,2.5677e-05,2.13e-06,0.0,0 STARLINK-5582,1 56777U 23078L   24059.17751514  .00000213  00000-0  25677-4 0  9990,2 56777  70.0006  51.7528 0002487 245.4309 114.6591 14.98328771 42017,6950.197,96.107,573.79,570.333,0.0
56777.0,STARLINK-5582,PAYLOAD,2024-02-28 09:04:01,14.98328772,0.0002703,70.0003,51.2481,262.248,97.8372,5.9289e-05,6.15e-06,0.0,0 STARLINK-5582,1 56777U 23078L   24059.37779539  .00000615  00000-0  59289-4 0  9991,2 56777  70.0003  51.2481 0002703 262.2480  97.8372 14.98328772 41788,6950.197,96.107,573.94,570.183,0.0
56777.0,STARLINK-5582,PAYLOAD,2024-02-28 17:04:41,14.9833347,0.0002807,70.0002,50.406,262.0597,98.0243,8.3409e-05,9.02e-06,0.0,0 STARLINK-5582,1 56777U 23078L   24059.71159208  .00000902  00000-0  83409-4 0  9994,2 56777  70.0002  50.4060 0002807 262.0597  98.0243 14.98333470 41830,6950.182,96.107,573.998,570.096,0.0
56777.0,STARLINK-5582,PAYLOAD,2024-02-29 04:17:37,14.98324415,0.0002766,69.9999,49.2276,262.1977,97.8868,0.00039399,4.61e-05,0.0,0 STARLINK-5582,1 56777U 23078L   24060.17891195  .00004610  00000-0  39399-3 0  9992,2 56777  69.9999  49.2276 0002766 262.1977  97.8868 14.98324415 42160,6950.21,96.107,573.998,570.153,0.0
56777.0,STARLINK-5582,PAYLOAD,2024-02-29 09:06:01,14.98328991,0.0002867,69.9998,48.7227,262.7004,97.383,0.00040421,4.733e-05,0.0,0 STARLINK-5582,1 56777U 23078L   24060.37918803  .00004733  00000-0  40421-3 0  9994,2 56777  69.9998  48.7227 0002867 262.7004  97.3830 14.98328991 41939,6950.196,96.107,574.054,570.068,0.0
56777.0,STARLINK-5582,PAYLOAD,2024-02-29 21:55:06,14.98288922,0.000286,69.9999,47.3761,256.9936,103.0903,0.001053,0.0001248,0.0,0 STARLINK-5582,1 56777U 23078L   24060.91327409  .00012480  00000-0  10530-2 0  9995,2 56777  69.9999  47.3761 0002860 256.9936 103.0903 14.98288922 42015,6950.32,96.11,574.173,570.197,0.0
56777.0,STARLINK-5582,PAYLOAD,2024-03-01 04:19:34,14.98498982,0.0001795,70.0,46.7026,296.2053,63.8922,-0.0025259,-0.00030232,0.0,0 STARLINK-5582,1 56777U 23078L   24061.18026475 -.00030232  00000-0 -25259-2 0  9995,2 56777  70.0000  46.7026 0001795 296.2053  63.8922 14.98498982 42317,6949.67,96.096,572.783,570.288,0.0
56777.0,STARLINK-5582,PAYLOAD,2024-03-01 09:08:02,14.98350673,0.0002827,70.0,46.1978,262.427,97.6568,0.00011616,1.294e-05,0.0,0 STARLINK-5582,1 56777U 23078L   24061.38057901  .00001294  00000-0  11616-3 0  9992,2 56777  70.0000  46.1978 0002827 262.4270  97.6568 14.98350673 42348,6950.129,96.106,573.959,570.029,0.0
56777.0,STARLINK-5582,PAYLOAD,2024-03-02 02:45:30,14.98344151,0.0002712,70.0008,44.3471,262.504,97.5811,-7.3442e-05,-9.69e-06,0.0,0 STARLINK-5582,1 56777U 23078L   24062.11494021 -.00000969  00000-0 -73442-4 0  9998,2 56777  70.0008  44.3471 0002712 262.5040  97.5811 14.98344151 42459,6950.149,96.106,573.899,570.129,0.0
56777.0,STARLINK-5582,PAYLOAD,2024-03-02 09:10:02,14.98348036,0.0002626,70.0009,43.675,249.2065,110.8813,-9.2244e-05,-1.194e-05,0.0,0 STARLINK-5582,1 56777U 23078L   24062.38197502 -.00001194  00000-0 -92244-4 0  9993,2 56777  70.0009  43.6750 0002626 249.2065 110.8813 14.98348036 42238,6950.137,96.106,573.827,570.177,0.0
56777.0,STARLINK-5582,PAYLOAD,2024-03-03 04:23:39,14.98333847,0.0002449,70.0014,41.6546,262.9725,97.1155,-0.00012994,-1.643e-05,0.0,0 STARLINK-5582,1 56777U 23078L   24063.18310049 -.00001643  00000-0 -12994-3 0  9997,2 56777  70.0014  41.6546 0002449 262.9725  97.1155 14.98333847 42615,6950.181,96.107,573.748,570.344,0.0
